[{"OBJECT_NAME":"QIANFAN-52","OBJECT_ID":"2024-232S","EPOCH":"2026-03-26T11:49:08.385888","MEAN_MOTION":13.51004145,"ECCENTRICITY":0.0013149,"INCLINATION":89.0089,"RA_OF_ASC_NODE":30.6467,"ARG_OF_PERICENTER":251.9371,"MEAN_ANOMALY":108.0348,"EPHEMERIS_TYPE":0,"CLASSIFICATION_TYPE":"U","NORAD_CAT_ID":62253,"ELEMENT_SET_NO":999,"REV_AT_EPOCH":8195,"BSTAR":0.00015193,"MEAN_MOTION_DOT":1.1e-6,"MEAN_MOTION_DDOT":0},{"OBJECT_NAME":"QIANFAN-53","OBJECT_ID":"2024-232T","EPOCH":"2026-03-26T11:19:24.504960","MEAN_MOTION":13.51006976,"ECCENTRICITY":0.0012026,"INCLINATION":89.0096,"RA_OF_ASC_NODE":30.761,"ARG_OF_PERICENTER":253.2729,"MEAN_ANOMALY":106.7102,"EPHEMERIS_TYPE":0,"CLASSIFICATION_TYPE":"U","NORAD_CAT_ID":62254,"ELEMENT_SET_NO":999,"REV_AT_EPOCH":8191,"BSTAR":0.00015182,"MEAN_MOTION_DOT":1.1e-6,"MEAN_MOTION_DDOT":0},{"OBJECT_NAME":"QIANFAN-54","OBJECT_ID":"2024-232U","EPOCH":"2026-03-26T12:18:43.424640","MEAN_MOTION":13.5100663,"ECCENTRICITY":0.0001436,"INCLINATION":89.0088,"RA_OF_ASC_NODE":30.4264,"ARG_OF_PERICENTER":10.3451,"MEAN_ANOMALY":349.773,"EPHEMERIS_TYPE":0,"CLASSIFICATION_TYPE":"U","NORAD_CAT_ID":62255,"ELEMENT_SET_NO":999,"REV_AT_EPOCH":11342,"BSTAR":0.00015461,"MEAN_MOTION_DOT":1.12e-6,"MEAN_MOTION_DDOT":0},{"OBJECT_NAME":"QIANFAN-55","OBJECT_ID":"2025-016A","EPOCH":"2026-03-26T11:09:43.617888","MEAN_MOTION":13.51006478,"ECCENTRICITY":0.0019029,"INCLINATION":88.968,"RA_OF_ASC_NODE":92.4645,"ARG_OF_PERICENTER":53.3236,"MEAN_ANOMALY":306.966,"EPHEMERIS_TYPE":0,"CLASSIFICATION_TYPE":"U","NORAD_CAT_ID":62785,"ELEMENT_SET_NO":999,"REV_AT_EPOCH":6119,"BSTAR":4.7047e-5,"MEAN_MOTION_DOT":4.3e-7,"MEAN_MOTION_DDOT":0},{"OBJECT_NAME":"QIANFAN-56","OBJECT_ID":"2025-016B","EPOCH":"2026-03-26T11:33:17.629920","MEAN_MOTION":13.50998975,"ECCENTRICITY":0.0017727,"INCLINATION":88.9653,"RA_OF_ASC_NODE":92.2712,"ARG_OF_PERICENTER":55.7665,"MEAN_ANOMALY":304.5162,"EPHEMERIS_TYPE":0,"CLASSIFICATION_TYPE":"U","NORAD_CAT_ID":62786,"ELEMENT_SET_NO":999,"REV_AT_EPOCH":6124,"BSTAR":1.3815e-5,"MEAN_MOTION_DOT":2.1e-7,"MEAN_MOTION_DDOT":0},{"OBJECT_NAME":"QIANFAN-57","OBJECT_ID":"2025-016C","EPOCH":"2026-03-26T10:34:07.618944","MEAN_MOTION":13.51005894,"ECCENTRICITY":0.0001917,"INCLINATION":88.9685,"RA_OF_ASC_NODE":92.4613,"ARG_OF_PERICENTER":111.4604,"MEAN_ANOMALY":248.6751,"EPHEMERIS_TYPE":0,"CLASSIFICATION_TYPE":"U","NORAD_CAT_ID":62787,"ELEMENT_SET_NO":999,"REV_AT_EPOCH":6120,"BSTAR":2.3682e-5,"MEAN_MOTION_DOT":2.7e-7,"MEAN_MOTION_DDOT":0},{"OBJECT_NAME":"QIANFAN-58","OBJECT_ID":"2025-016D","EPOCH":"2026-03-26T11:39:11.755008","MEAN_MOTION":13.50999611,"ECCENTRICITY":0.0015461,"INCLINATION":88.9654,"RA_OF_ASC_NODE":92.2563,"ARG_OF_PERICENTER":49.6191,"MEAN_ANOMALY":310.6307,"EPHEMERIS_TYPE":0,"CLASSIFICATION_TYPE":"U","NORAD_CAT_ID":62788,"ELEMENT_SET_NO":999,"REV_AT_EPOCH":6125,"BSTAR":2.3936e-5,"MEAN_MOTION_DOT":2.8e-7,"MEAN_MOTION_DDOT":0},{"OBJECT_NAME":"QIANFAN-59","OBJECT_ID":"2025-016E","EPOCH":"2026-03-26T10:28:09.090912","MEAN_MOTION":13.51007975,"ECCENTRICITY":0.0015927,"INCLINATION":88.9678,"RA_OF_ASC_NODE":92.3597,"ARG_OF_PERICENTER":52.9948,"MEAN_ANOMALY":307.2658,"EPHEMERIS_TYPE":0,"CLASSIFICATION_TYPE":"U","NORAD_CAT_ID":62789,"ELEMENT_SET_NO":999,"REV_AT_EPOCH":6124,"BSTAR":1.8076e-5,"MEAN_MOTION_DOT":2.4e-7,"MEAN_MOTION_DDOT":0},{"OBJECT_NAME":"QIANFAN-60","OBJECT_ID":"2025-016F","EPOCH":"2026-03-26T11:15:30.533760","MEAN_MOTION":13.51010082,"ECCENTRICITY":0.0017382,"INCLINATION":88.9659,"RA_OF_ASC_NODE":92.3079,"ARG_OF_PERICENTER":49.1833,"MEAN_ANOMALY":311.0823,"EPHEMERIS_TYPE":0,"CLASSIFICATION_TYPE":"U","NORAD_CAT_ID":62790,"ELEMENT_SET_NO":999,"REV_AT_EPOCH":6123,"BSTAR":2.1037e-6,"MEAN_MOTION_DOT":1.4e-7,"MEAN_MOTION_DDOT":0},{"OBJECT_NAME":"QIANFAN-61","OBJECT_ID":"2025-016G","EPOCH":"2026-03-26T12:02:58.181856","MEAN_MOTION":13.51006535,"ECCENTRICITY":0.0016297,"INCLINATION":88.9726,"RA_OF_ASC_NODE":92.5381,"ARG_OF_PERICENTER":48.9311,"MEAN_ANOMALY":311.3245,"EPHEMERIS_TYPE":0,"CLASSIFICATION_TYPE":"U","NORAD_CAT_ID":62791,"ELEMENT_SET_NO":999,"REV_AT_EPOCH":6125,"BSTAR":9.1277e-6,"MEAN_MOTION_DOT":1.8e-7,"MEAN_MOTION_DDOT":0},{"OBJECT_NAME":"QIANFAN-62","OBJECT_ID":"2025-016H","EPOCH":"2026-03-26T12:08:58.645248","MEAN_MOTION":13.51004962,"ECCENTRICITY":0.0017681,"INCLINATION":88.9673,"RA_OF_ASC_NODE":92.35,"ARG_OF_PERICENTER":48.7874,"MEAN_ANOMALY":311.4798,"EPHEMERIS_TYPE":0,"CLASSIFICATION_TYPE":"U","NORAD_CAT_ID":62792,"ELEMENT_SET_NO":999,"REV_AT_EPOCH":6124,"BSTAR":2.1405e-5,"MEAN_MOTION_DOT":2.6e-7,"MEAN_MOTION_DDOT":0},{"OBJECT_NAME":"QIANFAN-63","OBJECT_ID":"2025-016J","EPOCH":"2026-03-26T10:57:49.000032","MEAN_MOTION":13.51007272,"ECCENTRICITY":0.0017871,"INCLINATION":88.9679,"RA_OF_ASC_NODE":92.3136,"ARG_OF_PERICENTER":53.7437,"MEAN_ANOMALY":306.5362,"EPHEMERIS_TYPE":0,"CLASSIFICATION_TYPE":"U","NORAD_CAT_ID":62793,"ELEMENT_SET_NO":999,"REV_AT_EPOCH":6127,"BSTAR":3.7917e-5,"MEAN_MOTION_DOT":3.7e-7,"MEAN_MOTION_DDOT":0},{"OBJECT_NAME":"QIANFAN-64","OBJECT_ID":"2025-016K","EPOCH":"2026-03-26T11:57:02.534400","MEAN_MOTION":13.51006261,"ECCENTRICITY":0.0015633,"INCLINATION":88.9666,"RA_OF_ASC_NODE":92.2694,"ARG_OF_PERICENTER":47.9705,"MEAN_ANOMALY":312.2774,"EPHEMERIS_TYPE":0,"CLASSIFICATION_TYPE":"U","NORAD_CAT_ID":62794,"ELEMENT_SET_NO":999,"REV_AT_EPOCH":6127,"BSTAR":1.6575e-5,"MEAN_MOTION_DOT":2.3e-7,"MEAN_MOTION_DDOT":0},{"OBJECT_NAME":"QIANFAN-65","OBJECT_ID":"2025-016L","EPOCH":"2026-03-26T11:50:54.669984","MEAN_MOTION":13.5100959,"ECCENTRICITY":0.0015524,"INCLINATION":88.9662,"RA_OF_ASC_NODE":92.2922,"ARG_OF_PERICENTER":49.5311,"MEAN_ANOMALY":310.7191,"EPHEMERIS_TYPE":0,"CLASSIFICATION_TYPE":"U","NORAD_CAT_ID":62795,"ELEMENT_SET_NO":999,"REV_AT_EPOCH":6125,"BSTAR":2.1956e-5,"MEAN_MOTION_DOT":2.6e-7,"MEAN_MOTION_DDOT":0},{"OBJECT_NAME":"QIANFAN-66","OBJECT_ID":"2025-016M","EPOCH":"2026-03-26T10:46:00.019776","MEAN_MOTION":13.50997789,"ECCENTRICITY":0.0016508,"INCLINATION":88.9682,"RA_OF_ASC_NODE":92.2874,"ARG_OF_PERICENTER":45.3414,"MEAN_ANOMALY":314.9079,"EPHEMERIS_TYPE":0,"CLASSIFICATION_TYPE":"U","NORAD_CAT_ID":62796,"ELEMENT_SET_NO":999,"REV_AT_EPOCH":6129,"BSTAR":4.4701e-5,"MEAN_MOTION_DOT":4.1e-7,"MEAN_MOTION_DDOT":0},{"OBJECT_NAME":"QIANFAN-67","OBJECT_ID":"2025-016N","EPOCH":"2026-03-26T10:51:53.353440","MEAN_MOTION":13.5099614,"ECCENTRICITY":0.0016663,"INCLINATION":88.9672,"RA_OF_ASC_NODE":92.3024,"ARG_OF_PERICENTER":51.5604,"MEAN_ANOMALY":308.704,"EPHEMERIS_TYPE":0,"CLASSIFICATION_TYPE":"U","NORAD_CAT_ID":62797,"ELEMENT_SET_NO":999,"REV_AT_EPOCH":6126,"BSTAR":4.3513e-5,"MEAN_MOTION_DOT":4.0e-7,"MEAN_MOTION_DDOT":0},{"OBJECT_NAME":"QIANFAN-68","OBJECT_ID":"2025-016P","EPOCH":"2026-03-26T10:40:01.097760","MEAN_MOTION":13.51006087,"ECCENTRICITY":0.0016667,"INCLINATION":88.9676,"RA_OF_ASC_NODE":92.3522,"ARG_OF_PERICENTER":49.9837,"MEAN_ANOMALY":310.2774,"EPHEMERIS_TYPE":0,"CLASSIFICATION_TYPE":"U","NORAD_CAT_ID":62798,"ELEMENT_SET_NO":999,"REV_AT_EPOCH":6124,"BSTAR":2.6627e-5,"MEAN_MOTION_DOT":2.9e-7,"MEAN_MOTION_DDOT":0}]
