QIANFAN-52              
1 62253U 24232S   26085.49245817  .00000110  00000+0  15193-3 0  9995
2 62253  89.0089  30.6467 0013149 251.9371 108.0348 13.51004145 81957
QIANFAN-53              
1 62254U 24232T   26085.47181140  .00000110  00000+0  15182-3 0  9990
2 62254  89.0096  30.7610 0012026 253.2729 106.7102 13.51006976 81915
QIANFAN-54              
1 62255U 24232U   26085.51300260  .00000112  00000+0  15461-3 0  9994
2 62255  89.0088  30.4264 0001436  10.3451 349.7730 13.51006630113421
QIANFAN-55              
1 62785U 25016A   26085.46508817  .00000043  00000+0  47047-4 0  9994
2 62785  88.9680  92.4645 0019029  53.3236 306.9660 13.51006478 61194
QIANFAN-56              
1 62786U 25016B   26085.48145405  .00000021  00000+0  13815-4 0  9999
2 62786  88.9653  92.2712 0017727  55.7665 304.5162 13.50998975 61241
QIANFAN-57              
1 62787U 25016C   26085.44036596  .00000027  00000+0  23682-4 0  9995
2 62787  88.9685  92.4613 0001917 111.4604 248.6751 13.51005894 61204
QIANFAN-58              
1 62788U 25016D   26085.48555272  .00000028  00000+0  23936-4 0  9990
2 62788  88.9654  92.2563 0015461  49.6191 310.6307 13.50999611 61255
QIANFAN-59              
1 62789U 25016E   26085.43621633  .00000024  00000+0  18076-4 0  9996
2 62789  88.9678  92.3597 0015927  52.9948 307.2658 13.51007975 61248
QIANFAN-60              
1 62790U 25016F   26085.46910340  .00000014  00000+0  21037-5 0  9998
2 62790  88.9659  92.3079 0017382  49.1833 311.0823 13.51010082 61231
QIANFAN-61              
1 62791U 25016G   26085.50206229  .00000018  00000+0  91277-5 0  9995
2 62791  88.9726  92.5381 0016297  48.9311 311.3245 13.51006535 61258
QIANFAN-62              
1 62792U 25016H   26085.50623432  .00000026  00000+0  21405-4 0  9999
2 62792  88.9673  92.3500 0017681  48.7874 311.4798 13.51004962 61246
QIANFAN-63              
1 62793U 25016J   26085.45681713  .00000037  00000+0  37917-4 0  9997
2 62793  88.9679  92.3136 0017871  53.7437 306.5362 13.51007272 61272
QIANFAN-64              
1 62794U 25016K   26085.49794600  .00000023  00000+0  16575-4 0  9994
2 62794  88.9666  92.2694 0015633  47.9705 312.2774 13.51006261 61272
QIANFAN-65              
1 62795U 25016L   26085.49368831  .00000026  00000+0  21956-4 0  9990
2 62795  88.9662  92.2922 0015524  49.5311 310.7191 13.51009590 61255
QIANFAN-66              
1 62796U 25016M   26085.44861134  .00000041  00000+0  44701-4 0  9990
2 62796  88.9682  92.2874 0016508  45.3414 314.9079 13.50997789 61295
QIANFAN-67              
1 62797U 25016N   26085.45270085  .00000040  00000+0  43513-4 0  9990
2 62797  88.9672  92.3024 0016663  51.5604 308.7040 13.50996140 61261
QIANFAN-68              
1 62798U 25016P   26085.44445715  .00000029  00000+0  26627-4 0  9998
2 62798  88.9676  92.3522 0016667  49.9837 310.2774 13.51006087 61245
